{
  "norad_id": 68676,
  "name": "STARLINK-37312",
  "history": [
    {
      "epoch": "2026-04-22T12:51:19.739232Z",
      "apogee_km": 343.1219192939934,
      "perigee_km": 339.65464424859874,
      "latitude_deg": 7.969212374425572e-05,
      "longitude_deg": -59.81998716941071,
      "height_km": 342.87807021437055,
      "semi_major_axis_km": 6719.525281771295,
      "eccentricity": 0.000258,
      "inclination_deg": 97.2833,
      "raan_deg": 343.6081,
      "arg_perigee_deg": 14.497,
      "mean_anomaly_deg": 345.637,
      "mean_motion_rev_day": 15.761403
    }
  ]
}